     2.11           N: GPS NAV DATA                         RINEX VERSION / TYPE
teqc  2018Dec12     gpsops              20220612 01:04:09UTCPGM / RUN BY / DATE
Linux 2.6.32-573.12.1.x86_64|x86_64|gcc -static|Linux 64|=+ COMMENT
CHPI                                    MARKER NAME         COMMENT
41609M003                               MARKER NUMBER       COMMENT
4164613.9484 -4162456.9866 -2445028.7316                    COMMENT
This data is provided as a public service by NASA/JPL.      COMMENT
No warranty is expressed or implied regarding suitability   COMMENT
for use.  For further information, contact:                 COMMENT
ggnops at jpl dot nasa dot gov                              COMMENT
                                                            END OF HEADER
 8 22  6 11  8  0  0.0-7.167691364884D-05-1.591615728103D-12 0.000000000000D+00
    3.100000000000D+01-4.178125000000D+01 4.665194324069D-09-1.094337036604D+00
   -2.112239599228D-06 7.443555514328D-03 2.091750502586D-06 5.153773038864D+03
    5.472000000000D+05 4.284083843231D-08 1.284294968406D+00-1.192092895508D-07
    9.632070418509D-01 3.415000000000D+02 1.737154625063D-01-8.482496187157D-09
   -2.753686130652D-10 1.000000000000D+00 2.213000000000D+03 0.000000000000D+00
    2.000000000000D+00 0.000000000000D+00 5.122274160385D-09 3.100000000000D+01
    5.415480000000D+05 4.000000000000D+00
31 22  6 11  7 59 44.0-1.813420094550D-04-1.591615728103D-12 0.000000000000D+00
    4.000000000000D+00 2.543750000000D+01 4.662337062196D-09 1.877468686392D+00
    1.495704054832D-06 1.043520402163D-02 1.184269785881D-05 5.153757631302D+03
    5.471840000000D+05-2.011656761169D-07-7.645103103860D-01 1.918524503708D-07
    9.548919456881D-01 1.513750000000D+02 3.942314869238D-01-7.981403886080D-09
   -3.714440435639D-10 1.000000000000D+00 2.213000000000D+03 0.000000000000D+00
    2.000000000000D+00 0.000000000000D+00-1.350417733192D-08 4.000000000000D+00
    5.446680000000D+05 4.000000000000D+00
21 22  6 11  7 59 44.0 1.613097265363D-04 0.000000000000D+00 0.000000000000D+00
    1.900000000000D+01-9.353125000000D+01 4.120885937154D-09-9.369324713868D-01
   -5.012378096581D-06 2.424458274618D-02 1.111067831516D-05 5.153751817703D+03
    5.471840000000D+05-3.818422555923D-07 2.273140771654D+00-3.911554813385D-08
    9.602905478873D-01 1.696875000000D+02-9.387604021560D-01-8.252486606335D-09
    1.350056235261D-10 1.000000000000D+00 2.213000000000D+03 0.000000000000D+00
    2.000000000000D+00 0.000000000000D+00-1.024454832077D-08 1.900000000000D+01
    5.447460000000D+05 4.000000000000D+00
16 22  6 11  7 59 44.0-5.081007257104D-04-2.842170943040D-12 0.000000000000D+00
    4.200000000000D+01 1.085312500000D+02 4.595548565901D-09-1.075216319876D-01
    5.822628736496D-06 1.271240599453D-02 5.373731255531D-06 5.153664546967D+03
    5.471840000000D+05 8.009374141693D-08 3.483537995683D-01 1.490116119385D-07
    9.692944195289D-01 2.778750000000D+02 7.294124026115D-01-8.439280101319D-09
    1.207193141583D-10 1.000000000000D+00 2.213000000000D+03 0.000000000000D+00
    2.000000000000D+00 0.000000000000D+00-1.024454832077D-08 4.200000000000D+01
    5.454060000000D+05 4.000000000000D+00
32 22  6 11 10  0  0.0-1.485077664256D-04-9.322320693173D-12 0.000000000000D+00
    6.200000000000D+01-2.684375000000D+01 5.016637534518D-09 6.804257319943D-01
   -1.581385731697D-06 6.002541282214D-03 5.474314093590D-06 5.153600500107D+03
    5.544000000000D+05-7.636845111847D-08-1.843507149975D+00 3.539025783539D-08
    9.578687191912D-01 2.727500000000D+02-2.280595772928D+00-8.371420131822D-09
   -1.082187934614D-10 1.000000000000D+00 2.213000000000D+03 0.000000000000D+00
    2.000000000000D+00 0.000000000000D+00 4.656612873077D-10 6.200000000000D+01
    5.472180000000D+05 4.000000000000D+00
22 22  6 11 10  0  0.0 2.739555202425D-04 6.252776074689D-12 0.000000000000D+00
    7.100000000000D+01-2.862500000000D+01 4.960206612515D-09-1.523541141147D-01
   -1.586973667145D-06 1.340410136618D-02 6.286427378654D-06 5.153694459915D+03
    5.544000000000D+05-1.732259988785D-07-1.752908040844D+00 1.266598701477D-07
    9.610603938973D-01 2.635000000000D+02-1.847961813061D+00-8.460352407637D-09
   -1.114332130692D-10 1.000000000000D+00 2.213000000000D+03 0.000000000000D+00
    2.000000000000D+00 0.000000000000D+00-8.381903171539D-09 7.100000000000D+01
    5.472180000000D+05 4.000000000000D+00
27 22  6 11 10  0  0.0 2.144146710634D-04 3.637978807092D-12 0.000000000000D+00
    1.000000000000D+02-3.031250000000D+01 4.648765068296D-09 1.007743846290D-02
   -1.538544893265D-06 1.054645900149D-02 1.918524503708D-06 5.153655973434D+03
    5.544000000000D+05 1.862645149231D-09 1.304630379663D+00 8.568167686462D-08
    9.719418301928D-01 3.438125000000D+02 6.880811588964D-01-8.585000456871D-09
   -3.342996392075D-10 1.000000000000D+00 2.213000000000D+03 0.000000000000D+00
    2.000000000000D+00 0.000000000000D+00 1.862645149231D-09 1.000000000000D+02
    5.472180000000D+05 4.000000000000D+00
 8 22  6 11 10  0  0.0-7.168808951974D-05-1.591615728103D-12 0.000000000000D+00
    3.400000000000D+01-3.437500000000D+01 4.828058250863D-09-4.430986488373D-02
   -1.933425664902D-06 7.442960864864D-03 1.940876245499D-06 5.153771352768D+03
    5.544000000000D+05 5.587935447693D-08 1.284233795024D+00 2.048909664154D-08
    9.632043749513D-01 3.401250000000D+02 1.738107847854D-01-8.594643715695D-09
   -3.296565886630D-10 1.000000000000D+00 2.213000000000D+03 0.000000000000D+00
    2.000000000000D+00 0.000000000000D+00 5.122274160385D-09 3.400000000000D+01
    5.472180000000D+05 4.000000000000D+00
10 22  6 11 10  0  0.0-4.505026154220D-04-1.500666257925D-11 0.000000000000D+00
    1.150000000000D+02 1.253125000000D+01 4.120528779420D-09 2.053593444776D+00
    7.022172212601D-07 7.639286341146D-03 8.909031748772D-06 5.153682352066D+03
    5.544000000000D+05-2.197921276093D-07-2.885353256625D+00-5.401670932770D-08
    9.741618142298D-01 2.138437500000D+02-2.498494475981D+00-7.839255107870D-09
    5.978820470442D-10 1.000000000000D+00 2.213000000000D+03 0.000000000000D+00
    2.800000000000D+00 0.000000000000D+00 2.328306436539D-09 1.150000000000D+02
    5.472180000000D+05 4.000000000000D+00
21 22  6 11 10  0  0.0 1.613097265363D-04 0.000000000000D+00 0.000000000000D+00
    4.000000000000D+01-8.837500000000D+01 4.413040963727D-09 1.154334908739D-01
   -4.902482032776D-06 2.424046013039D-02 9.635463356972D-06 5.153742467880D+03
    5.544000000000D+05-1.117587089539D-08 2.273082998094D+00-4.284083843231D-07
    9.602897959474D-01 2.032500000000D+02-9.386591243374D-01-8.388563703063D-09
   -2.900120801672D-10 1.000000000000D+00 2.213000000000D+03 0.000000000000D+00
    2.000000000000D+00 0.000000000000D+00-1.024454832077D-08 4.000000000000D+01
    5.472180000000D+05 4.000000000000D+00
23 22  6 11  9 59 44.0-2.738181501627D-05-2.160049916711D-12 0.000000000000D+00
    5.300000000000D+01 1.615625000000D+01 4.181959909702D-09-2.955214997275D+00
    1.033768057823D-06 2.232334809378D-03 9.210780262947D-06 5.153711162567D+03
    5.543840000000D+05-3.352761268616D-08-2.910785380843D+00-5.401670932770D-08
    9.692530350394D-01 2.050625000000D+02 2.998703060613D+00-7.818182801552D-09
    6.503842339711D-10 1.000000000000D+00 2.213000000000D+03 0.000000000000D+00
    2.000000000000D+00 0.000000000000D+00-8.381903171539D-09 3.090000000000D+02
    5.472180000000D+05 4.000000000000D+00
16 22  6 11  9 59 44.0-5.081207491457D-04-2.842170943040D-12 0.000000000000D+00
    4.300000000000D+01 1.124687500000D+02 4.568404578102D-09 9.425834298804D-01
    6.182119250298D-06 1.271367224399D-02 6.126239895821D-06 5.153667579651D+03
    5.543840000000D+05-3.725290298462D-08 3.482936604690D-01 1.769512891769D-07
    9.692951173409D-01 2.657812500000D+02 7.294936808771D-01-8.384634967987D-09
    5.821671067396D-11 1.000000000000D+00 2.213000000000D+03 0.000000000000D+00
    2.000000000000D+00 0.000000000000D+00-1.024454832077D-08 4.300000000000D+01
    5.472180000000D+05 4.000000000000D+00
18 22  6 11 10  0  0.0 1.453016884625D-04-1.068656274583D-11 0.000000000000D+00
    2.900000000000D+01-1.015937500000D+02 3.909805716245D-09-1.848815740288D+00
   -5.271285772324D-06 2.387615502812D-03 9.996816515923D-06 5.153733980179D+03
    5.544000000000D+05-5.215406417847D-08 2.373238123648D+00 5.215406417847D-08
    9.717725793485D-01 1.939062500000D+02 3.009305723240D+00-7.722107371054D-09
   -7.286017777600D-11 1.000000000000D+00 2.213000000000D+03 0.000000000000D+00
    2.000000000000D+00 0.000000000000D+00-8.381903171539D-09 2.900000000000D+01
    5.472180000000D+05 4.000000000000D+00
31 22  6 11  9 59 44.0-1.813531853259D-04-1.591615728103D-12 0.000000000000D+00
    5.000000000000D+00 1.834375000000D+01 4.541617748037D-09 2.927531505038D+00
    9.909272193909D-07 1.043497049250D-02 1.172535121441D-05 5.153758815765D+03
    5.543840000000D+05-1.247972249985D-07-7.645674578178D-01-9.126961231232D-08
    9.548907007448D-01 1.517187500000D+02 3.942984037226D-01-7.736750838156D-09
   -2.792973481413D-10 1.000000000000D+00 2.213000000000D+03 0.000000000000D+00
    2.000000000000D+00 0.000000000000D+00-1.350417733192D-08 5.000000000000D+00
    5.472180000000D+05 4.000000000000D+00
26 22  6 11  9 59 44.0 2.116286195815D-04 2.387423592154D-12 0.000000000000D+00
    8.000000000000D+00 1.164062500000D+02 5.177001357172D-09 1.816378008601D+00
    6.215646862984D-06 6.956609664485D-03 7.189810276031D-06 5.153770051956D+03
    5.543840000000D+05-1.396983861923D-07 2.025329708026D-01 2.291053533554D-07
    9.377553613434D-01 2.295625000000D+02 3.876682951406D-01-8.492853761449D-09
    1.742929742877D-10 1.000000000000D+00 2.213000000000D+03 0.000000000000D+00
    2.000000000000D+00 0.000000000000D+00 6.984919309616D-09 8.000000000000D+00
    5.472180000000D+05 4.000000000000D+00
